{
    "bodies": [
        {
            "name": "TNO-208",
            "mass": 0,
            "semi_major_axis": 221.09375,
            "eccentricity": 0.8203125,
            "inclination": 0.08863000107783704,
            "longitude_of_ascending_node": 6.23524559215592,
            "argument_of_perihelion": 0.4924583747767305,
            "mean_anomaly": 4.653600948264506
        },
        {
            "name": "TNO-209",
            "mass": 0,
            "semi_major_axis": 221.435546875,
            "eccentricity": 0.82041015625,
            "inclination": 0.08905610685224973,
            "longitude_of_ascending_node": 0.11852398247228775,
            "argument_of_perihelion": 2.298700656891283,
            "mean_anomaly": 0.5418120941568839
        },
        {
            "name": "TNO-210",
            "mass": 0,
            "semi_major_axis": 221.77734375,
            "eccentricity": 0.8205078125,
            "inclination": 0.08948221262666241,
            "longitude_of_ascending_node": 1.5804939281598172,
            "argument_of_perihelion": 4.054861029988893,
            "mean_anomaly": 1.3588578929866857
        },
        {
            "name": "TNO-211",
            "mass": 0,
            "semi_major_axis": 222.119140625,
            "eccentricity": 0.8206054687500001,
            "inclination": 0.08990831840107508,
            "longitude_of_ascending_node": 5.817912095579357,
            "argument_of_perihelion": 5.234276732883141,
            "mean_anomaly": 5.492614117055662
        },
        {
            "name": "TNO-212",
            "mass": 0,
            "semi_major_axis": 222.4609375,
            "eccentricity": 0.8207031250000001,
            "inclination": 0.09033442417548776,
            "longitude_of_ascending_node": 3.5948396297079235,
            "argument_of_perihelion": 3.213871420472782,
            "mean_anomaly": 2.245804307013646
        },
        {
            "name": "TNO-213",
            "mass": 0,
            "semi_major_axis": 222.802734375,
            "eccentricity": 0.82080078125,
            "inclination": 0.09076052994990044,
            "longitude_of_ascending_node": 3.8375655211719066,
            "argument_of_perihelion": 4.983646999002848,
            "mean_anomaly": 0.6282338226156504
        },
        {
            "name": "TNO-214",
            "mass": 0,
            "semi_major_axis": 223.14453125,
            "eccentricity": 0.8208984375,
            "inclination": 0.09118663572431311,
            "longitude_of_ascending_node": 5.830017494105552,
            "argument_of_perihelion": 1.743364074087088,
            "mean_anomaly": 2.847707094130542
        },
        {
            "name": "TNO-215",
            "mass": 0,
            "semi_major_axis": 223.486328125,
            "eccentricity": 0.82099609375,
            "inclination": 0.0916127414987258,
            "longitude_of_ascending_node": 3.795285117875915,
            "argument_of_perihelion": 4.504390908459683,
            "mean_anomaly": 4.388132684577467
        },
        {
            "name": "TNO-216",
            "mass": 0,
            "semi_major_axis": 223.828125,
            "eccentricity": 0.8210937500000001,
            "inclination": 0.09203884727313848,
            "longitude_of_ascending_node": 4.8231237869829,
            "argument_of_perihelion": 2.5991867379351845,
            "mean_anomaly": 4.897514674518616
        },
        {
            "name": "TNO-217",
            "mass": 0,
            "semi_major_axis": 224.169921875,
            "eccentricity": 0.8211914062500001,
            "inclination": 0.09246495304755115,
            "longitude_of_ascending_node": 4.609539411018071,
            "argument_of_perihelion": 3.083072578153953,
            "mean_anomaly": 3.576107425643155
        },
        {
            "name": "TNO-218",
            "mass": 0,
            "semi_major_axis": 224.51171875,
            "eccentricity": 0.8212890625,
            "inclination": 0.09289105882196383,
            "longitude_of_ascending_node": 5.124155472036904,
            "argument_of_perihelion": 5.385669791457334,
            "mean_anomaly": 5.572838186673399
        },
        {
            "name": "TNO-219",
            "mass": 0,
            "semi_major_axis": 224.853515625,
            "eccentricity": 0.82138671875,
            "inclination": 0.09331716459637651,
            "longitude_of_ascending_node": 1.2624519098512414,
            "argument_of_perihelion": 3.3224806799825113,
            "mean_anomaly": 5.40285910675969
        },
        {
            "name": "TNO-220",
            "mass": 0,
            "semi_major_axis": 225.1953125,
            "eccentricity": 0.821484375,
            "inclination": 0.09374327037078918,
            "longitude_of_ascending_node": 4.595830147889673,
            "argument_of_perihelion": 1.9782290898614918,
            "mean_anomaly": 4.967437284574366
        },
        {
            "name": "TNO-221",
            "mass": 0,
            "semi_major_axis": 225.537109375,
            "eccentricity": 0.8215820312500001,
            "inclination": 0.09416937614520186,
            "longitude_of_ascending_node": 4.845487956397958,
            "argument_of_perihelion": 5.199390992217598,
            "mean_anomaly": 3.636704643641387
        },
        {
            "name": "TNO-222",
            "mass": 0,
            "semi_major_axis": 225.87890625,
            "eccentricity": 0.8216796875000001,
            "inclination": 0.09459548191961455,
            "longitude_of_ascending_node": 3.8267992995748985,
            "argument_of_perihelion": 1.3948042763310042,
            "mean_anomaly": 5.977628192236188
        },
        {
            "name": "TNO-223",
            "mass": 0,
            "semi_major_axis": 226.220703125,
            "eccentricity": 0.82177734375,
            "inclination": 0.09502158769402722,
            "longitude_of_ascending_node": 0.6075797631149369,
            "argument_of_perihelion": 3.456735181219098,
            "mean_anomaly": 5.650206675411039
        },
        {
            "name": "TNO-224",
            "mass": 0,
            "semi_major_axis": 226.5625,
            "eccentricity": 0.821875,
            "inclination": 0.0954476934684399,
            "longitude_of_ascending_node": 4.949989209397037,
            "argument_of_perihelion": 3.0965100875179696,
            "mean_anomaly": 5.749374159648572
        },
        {
            "name": "TNO-225",
            "mass": 0,
            "semi_major_axis": 226.904296875,
            "eccentricity": 0.82197265625,
            "inclination": 0.09587379924285258,
            "longitude_of_ascending_node": 1.443617833359463,
            "argument_of_perihelion": 5.7365420512405265,
            "mean_anomaly": 6.24335596280357
        },
        {
            "name": "TNO-226",
            "mass": 0,
            "semi_major_axis": 227.24609375,
            "eccentricity": 0.8220703125000001,
            "inclination": 0.09629990501726525,
            "longitude_of_ascending_node": 5.360794552624117,
            "argument_of_perihelion": 4.854317673181375,
            "mean_anomaly": 0.6323010849633398
        },
        {
            "name": "TNO-227",
            "mass": 0,
            "semi_major_axis": 227.587890625,
            "eccentricity": 0.8221679687500001,
            "inclination": 0.09672601079167793,
            "longitude_of_ascending_node": 5.69836187579768,
            "argument_of_perihelion": 4.758785672551516,
            "mean_anomaly": 1.847857448415989
        },
        {
            "name": "TNO-228",
            "mass": 0,
            "semi_major_axis": 227.9296875,
            "eccentricity": 0.822265625,
            "inclination": 0.09715211656609062,
            "longitude_of_ascending_node": 3.8262078099697905,
            "argument_of_perihelion": 0.3243311972646566,
            "mean_anomaly": 4.978157955769148
        },
        {
            "name": "TNO-229",
            "mass": 0,
            "semi_major_axis": 228.271484375,
            "eccentricity": 0.82236328125,
            "inclination": 0.09757822234050328,
            "longitude_of_ascending_node": 2.857295895244236,
            "argument_of_perihelion": 0.32256499905987207,
            "mean_anomaly": 1.4996199147000784
        },
        {
            "name": "TNO-230",
            "mass": 0,
            "semi_major_axis": 228.61328125,
            "eccentricity": 0.8224609375,
            "inclination": 0.09800432811491597,
            "longitude_of_ascending_node": 5.206799982486263,
            "argument_of_perihelion": 5.762397007487426,
            "mean_anomaly": 4.815949407348009
        },
        {
            "name": "TNO-231",
            "mass": 0,
            "semi_major_axis": 228.955078125,
            "eccentricity": 0.8225585937500001,
            "inclination": 0.09843043388932864,
            "longitude_of_ascending_node": 0.7126609242353892,
            "argument_of_perihelion": 4.290683983888978,
            "mean_anomaly": 5.570807570466441
        },
        {
            "name": "TNO-232",
            "mass": 0,
            "semi_major_axis": 229.296875,
            "eccentricity": 0.8226562500000001,
            "inclination": 0.09885653966374132,
            "longitude_of_ascending_node": 2.4462047165101333,
            "argument_of_perihelion": 1.7061961907070573,
            "mean_anomaly": 2.8650549453600185
        },
        {
            "name": "TNO-233",
            "mass": 0,
            "semi_major_axis": 229.638671875,
            "eccentricity": 0.82275390625,
            "inclination": 0.099282645438154,
            "longitude_of_ascending_node": 6.251076564338252,
            "argument_of_perihelion": 0.12493806434903842,
            "mean_anomaly": 5.054274060334135
        }
    ]
}